{
  "type": "FeatureCollection",
  "features": [
    {
      "type": "Feature",
      "properties": {
        "norad_id": 24946,
        "name": "IRIDIUM 33",
        "group": "iridium-33-debris",
        "lat": -78.16208218414106,
        "lon": 54.0344035754563,
        "alt_km": 779.5465166574195,
        "timestamp": "2025-12-04T17:48:40.549247+00:00",
        "meta_object_name": "IRIDIUM 33",
        "meta_object_id": "1997-051C",
        "meta_epoch": "2025-12-04T06:27:47.288448",
        "meta_mean_motion": 14.35028286,
        "meta_eccentricity": 0.00061908,
        "meta_inclination": 86.3871,
        "meta_ra_of_asc_node": 71.7767,
        "meta_arg_of_pericenter": 232.9951,
        "meta_mean_anomaly": 127.0679,
        "meta_ephemeris_type": 0,
        "meta_classification_type": "U",
        "meta_norad_cat_id": 24946,
        "meta_element_set_no": 999,
        "meta_rev_at_epoch": 47713,
        "meta_bstar": 0.00025844364,
        "meta_mean_motion_dot": 7.55e-06,
        "meta_mean_motion_ddot": 0,
        "tle_line1": "1 24946U 97051C   25338.26929732  .00000755  00000+0  25844-3 0  9990",
        "tle_line2": "2 24946  86.3871  71.7767 0006190 232.9951 127.0679 14.35028286477135"
      },
      "geometry": {
        "type": "Point",
        "coordinates": [
          54.0344035754563,
          -78.16208218414106
        ]
      }
    },
    {
      "type": "Feature",
      "properties": {
        "norad_id": 33773,
        "name": "IRIDIUM 33 DEB",
        "group": "iridium-33-debris",
        "lat": 2.0605695447865244,
        "lon": 64.10765914253481,
        "alt_km": 758.7308034368643,
        "timestamp": "2025-12-04T17:48:40.549289+00:00",
        "meta_object_name": "IRIDIUM 33 DEB",
        "meta_object_id": "1997-051L",
        "meta_epoch": "2025-12-04T07:49:03.732960",
        "meta_mean_motion": 14.4322903,
        "meta_eccentricity": 0.00115857,
        "meta_inclination": 86.4014,
        "meta_ra_of_asc_node": 64.1543,
        "meta_arg_of_pericenter": 172.2556,
        "meta_mean_anomaly": 187.8826,
        "meta_ephemeris_type": 0,
        "meta_classification_type": "U",
        "meta_norad_cat_id": 33773,
        "meta_element_set_no": 999,
        "meta_rev_at_epoch": 88226,
        "meta_bstar": 0.00068255164,
        "meta_mean_motion_dot": 2.316e-05,
        "meta_mean_motion_ddot": 0,
        "tle_line1": "1 33773U 97051L   25338.32573765  .00002316  00000+0  68255-3 0  9994",
        "tle_line2": "2 33773  86.4014  64.1543 0011585 172.2556 187.8826 14.43229030882263"
      },
      "geometry": {
        "type": "Point",
        "coordinates": [
          64.10765914253481,
          2.0605695447865244
        ]
      }
    },
    {
      "type": "Feature",
      "properties": {
        "norad_id": 33775,
        "name": "IRIDIUM 33 DEB",
        "group": "iridium-33-debris",
        "lat": 42.79321247575682,
        "lon": -130.40714461092557,
        "alt_km": 743.3344609920259,
        "timestamp": "2025-12-04T17:48:40.549305+00:00",
        "meta_object_name": "IRIDIUM 33 DEB",
        "meta_object_id": "1997-051N",
        "meta_epoch": "2025-12-04T05:45:50.599872",
        "meta_mean_motion": 14.41440415,
        "meta_eccentricity": 0.00133051,
        "meta_inclination": 86.3643,
        "meta_ra_of_asc_node": 53.1816,
        "meta_arg_of_pericenter": 181.5813,
        "meta_mean_anomaly": 232.3951,
        "meta_ephemeris_type": 0,
        "meta_classification_type": "U",
        "meta_norad_cat_id": 33775,
        "meta_element_set_no": 999,
        "meta_rev_at_epoch": 88018,
        "meta_bstar": 0.00068123512,
        "meta_mean_motion_dot": 2.23e-05,
        "meta_mean_motion_ddot": 0,
        "tle_line1": "1 33775U 97051N   25338.24016898  .00002230  00000+0  68124-3 0  9996",
        "tle_line2": "2 33775  86.3643  53.1816 0013305 181.5813 232.3951 14.41440415880188"
      },
      "geometry": {
        "type": "Point",
        "coordinates": [
          -130.40714461092557,
          42.79321247575682
        ]
      }
    },
    {
      "type": "Feature",
      "properties": {
        "norad_id": 33776,
        "name": "IRIDIUM 33 DEB",
        "group": "iridium-33-debris",
        "lat": 79.74206165676209,
        "lon": -116.2011975707971,
        "alt_km": 761.6983215656646,
        "timestamp": "2025-12-04T17:48:40.549320+00:00",
        "meta_object_name": "IRIDIUM 33 DEB",
        "meta_object_id": "1997-051P",
        "meta_epoch": "2025-12-04T07:34:38.292672",
        "meta_mean_motion": 14.38210128,
        "meta_eccentricity": 0.00134368,
        "meta_inclination": 86.4037,
        "meta_ra_of_asc_node": 84.3132,
        "meta_arg_of_pericenter": 219.4999,
        "meta_mean_anomaly": 193.8415,
        "meta_ephemeris_type": 0,
        "meta_classification_type": "U",
        "meta_norad_cat_id": 33776,
        "meta_element_set_no": 999,
        "meta_rev_at_epoch": 87961,
        "meta_bstar": 0.00060641672,
        "meta_mean_motion_dot": 1.862e-05,
        "meta_mean_motion_ddot": 0,
        "tle_line1": "1 33776U 97051P   25338.31572098  .00001862  00000+0  60642-3 0  9991",
        "tle_line2": "2 33776  86.4037  84.3132 0013436 219.4999 193.8415 14.38210128879619"
      },
      "geometry": {
        "type": "Point",
        "coordinates": [
          -116.2011975707971,
          79.74206165676209
        ]
      }
    },
    {
      "type": "Feature",
      "properties": {
        "norad_id": 33777,
        "name": "IRIDIUM 33 DEB",
        "group": "iridium-33-debris",
        "lat": 70.85708358344954,
        "lon": -151.8261897725418,
        "alt_km": 704.5669486175184,
        "timestamp": "2025-12-04T17:48:40.549333+00:00",
        "meta_object_name": "IRIDIUM 33 DEB",
        "meta_object_id": "1997-051Q",
        "meta_epoch": "2025-12-04T04:06:47.905056",
        "meta_mean_motion": 14.5551004,
        "meta_eccentricity": 0.0005147,
        "meta_inclination": 86.3799,
        "meta_ra_of_asc_node": 38.9304,
        "meta_arg_of_pericenter": 289.5346,
        "meta_mean_anomaly": 70.5306,
        "meta_ephemeris_type": 0,
        "meta_classification_type": "U",
        "meta_norad_cat_id": 33777,
        "meta_element_set_no": 999,
        "meta_rev_at_epoch": 88409,
        "meta_bstar": 0.0021194,
        "meta_mean_motion_dot": 9.25e-05,
        "meta_mean_motion_ddot": 0,
        "tle_line1": "1 33777U 97051Q   25338.17138779  .00009250  00000+0  21194-2 0  9997",
        "tle_line2": "2 33777  86.3799  38.9304 0005147 289.5346  70.5306 14.55510040884097"
      },
      "geometry": {
        "type": "Point",
        "coordinates": [
          -151.8261897725418,
          70.85708358344954
        ]
      }
    },
    {
      "type": "Feature",
      "properties": {
        "norad_id": 33850,
        "name": "IRIDIUM 33 DEB",
        "group": "iridium-33-debris",
        "lat": 80.84311762504096,
        "lon": -169.7618126357731,
        "alt_km": 743.8326158830268,
        "timestamp": "2025-12-04T17:48:40.549359+00:00",
        "meta_object_name": "IRIDIUM 33 DEB",
        "meta_object_id": "1997-051T",
        "meta_epoch": "2025-12-04T06:00:53.789184",
        "meta_mean_motion": 14.42119961,
        "meta_eccentricity": 0.00113089,
        "meta_inclination": 86.3424,
        "meta_ra_of_asc_node": 33.8294,
        "meta_arg_of_pericenter": 187.7158,
        "meta_mean_anomaly": 240.6619,
        "meta_ephemeris_type": 0,
        "meta_classification_type": "U",
        "meta_norad_cat_id": 33850,
        "meta_element_set_no": 999,
        "meta_rev_at_epoch": 88030,
        "meta_bstar": 0.00078145382,
        "meta_mean_motion_dot": 2.59e-05,
        "meta_mean_motion_ddot": 0,
        "tle_line1": "1 33850U 97051T   25338.25062256  .00002590  00000+0  78145-3 0  9993",
        "tle_line2": "2 33850  86.3424  33.8294 0011308 187.7158 240.6619 14.42119961880302"
      },
      "geometry": {
        "type": "Point",
        "coordinates": [
          -169.7618126357731,
          80.84311762504096
        ]
      }
    },
    {
      "type": "Feature",
      "properties": {
        "norad_id": 33853,
        "name": "IRIDIUM 33 DEB",
        "group": "iridium-33-debris",
        "lat": -77.66225801758175,
        "lon": -25.336137957412735,
        "alt_km": 764.0059303219623,
        "timestamp": "2025-12-04T17:48:40.549374+00:00",
        "meta_object_name": "IRIDIUM 33 DEB",
        "meta_object_id": "1997-051W",
        "meta_epoch": "2025-12-04T01:16:34.217184",
        "meta_mean_motion": 13.98972091,
        "meta_eccentricity": 0.02067962,
        "meta_inclination": 86.0003,
        "meta_ra_of_asc_node": 353.6212,
        "meta_arg_of_pericenter": 262.6777,
        "meta_mean_anomaly": 150.4676,
        "meta_ephemeris_type": 0,
        "meta_classification_type": "U",
        "meta_norad_cat_id": 33853,
        "meta_element_set_no": 999,
        "meta_rev_at_epoch": 85224,
        "meta_bstar": 0.0041696417,
        "meta_mean_motion_dot": 7.249e-05,
        "meta_mean_motion_ddot": 0,
        "tle_line1": "1 33853U 97051W   25338.05317381  .00007249  00000+0  41696-2 0  9992",
        "tle_line2": "2 33853  86.0003 353.6212 0206796 262.6777 150.4676 13.98972091852249"
      },
      "geometry": {
        "type": "Point",
        "coordinates": [
          -25.336137957412735,
          -77.66225801758175
        ]
      }
    }
  ]
}